CCSDS_OMM_VERS,COMMENT,CREATION_DATE,ORIGINATOR,OBJECT_NAME,OBJECT_ID,CENTER_NAME,REF_FRAME,TIME_SYSTEM,MEAN_ELEMENT_THEORY,EPOCH,MEAN_MOTION,ECCENTRICITY,INCLINATION,RA_OF_ASC_NODE,ARG_OF_PERICENTER,MEAN_ANOMALY,EPHEMERIS_TYPE,CLASSIFICATION_TYPE,NORAD_CAT_ID,ELEMENT_SET_NO,REV_AT_EPOCH,BSTAR,MEAN_MOTION_DOT,MEAN_MOTION_DDOT,SEMIMAJOR_AXIS,PERIOD,APOAPSIS,PERIAPSIS,OBJECT_TYPE,RCS_SIZE,COUNTRY_CODE,LAUNCH_DATE,SITE,DECAY_DATE,FILE,GP_ID,TLE_LINE0,TLE_LINE1,TLE_LINE2,,,,,,,AVG_ALTITUDE,,AVG_VELOCITY
2,GENERATED VIA SPACE-TRACK.ORG API,2022-06-02T23:06:16,18 SPCS,ONEWEB-0291,2021-075G,EARTH,TEME,UTC,SGP4,2022-06-02T19:22:15.573216,13.17647258,0.0001917,87.9037,299.1576,108.1609,251.9732,0,U,49081,999,4030,-6.64E-05,-1.30E-07,0,7571.857,109.286,1195.173,1192.27,PAYLOAD,MEDIUM,UK,8/21/2021,TTMTR,,3477817,205186136,0 ONEWEB-0291,1 49081U 21075G   22153.80712469 -.00000013  00000-0 -66418-4 0  9992,2 49081  87.9037 299.1576 0001917 108.1609 251.9732 13.17647258 40300,,,,,,,1201.857,,7.255506205
2,GENERATED VIA SPACE-TRACK.ORG API,2022-06-03T02:31:39,18 SPCS,ONEWEB-0293,2021-075H,EARTH,TEME,UTC,SGP4,2022-06-02T19:46:49.274688,13.17649759,0.0001823,87.9056,299.1183,112.5312,247.6013,0,U,49082,999,3934,1.36E-05,1.80E-07,0,7571.847,109.285,1195.093,1192.332,PAYLOAD,MEDIUM,UK,8/21/2021,TTMTR,,3477983,205213967,0 ONEWEB-0293,1 49082U 21075H   22153.82418142  .00000018  00000-0  13553-4 0  9991,2 49082  87.9056 299.1183 0001823 112.5312 247.6013 13.17649759 39346,,,,,,,1201.847,,7.255510996
2,GENERATED VIA SPACE-TRACK.ORG API,2022-06-02T23:06:16,18 SPCS,ONEWEB-0294,2021-075J,EARTH,TEME,UTC,SGP4,2022-06-02T18:09:44.463168,13.12442415,0.0001663,87.9095,283.8858,117.1369,242.993,0,U,49083,999,4203,-0.00031426,-1.00E-06,0,7591.863,109.719,1214.99,1212.465,PAYLOAD,MEDIUM,UK,8/21/2021,TTMTR,,3477810,205186861,0 ONEWEB-0294,1 49083U 21075J   22153.75676462 -.00000100  00000-0 -31426-3 0  9997,2 49083  87.9095 283.8858 0001663 117.1369 242.9930 13.12442415 42035,,,,,,,1221.863,,7.245940081
2,GENERATED VIA SPACE-TRACK.ORG API,2022-06-03T02:31:39,18 SPCS,ONEWEB-0295,2021-075K,EARTH,TEME,UTC,SGP4,2022-06-02T16:10:20.117280,13.17650009,0.0002264,87.9051,299.119,115.1549,244.9817,0,U,49084,999,3928,-3.20E-05,0,0,7571.846,109.285,1195.426,1191.997,PAYLOAD,LARGE,UK,8/21/2021,TTMTR,,3477983,205212465,0 ONEWEB-0295,1 49084U 21075K   22153.67384395  .00000000  00000-0 -32010-4 0  9999,2 49084  87.9051 299.1190 0002264 115.1549 244.9817 13.17650009 39287,,,,,,,1201.846,,7.255511475
2,GENERATED VIA SPACE-TRACK.ORG API,2022-06-03T02:31:39,18 SPCS,ONEWEB-0296,2021-075L,EARTH,TEME,UTC,SGP4,2022-06-02T19:36:36.763488,13.12447091,0.0002547,87.9043,283.8358,119.1501,240.9883,0,U,49085,999,4105,0.0041042,1.49E-05,0,7591.845,109.719,1215.643,1211.776,PAYLOAD,MEDIUM,UK,8/21/2021,TTMTR,,3477983,205212715,0 ONEWEB-0296,1 49085U 21075L   22153.81709217  .00001490  00000-0  41042-2 0  9996,2 49085  87.9043 283.8358 0002547 119.1501 240.9883 13.12447091 41058,,,,,,,1221.845,,7.245948671
2,GENERATED VIA SPACE-TRACK.ORG API,2022-06-03T07:06:16,18 SPCS,ONEWEB-0297,2021-075M,EARTH,TEME,UTC,SGP4,2022-06-03T01:48:40.359168,13.12453609,0.0001895,87.8834,283.8698,84.5507,275.5838,0,U,49086,999,4268,-0.0055712,-1.99E-05,0,7591.819,109.718,1215.123,1212.246,PAYLOAD,MEDIUM,UK,8/21/2021,TTMTR,,3478428,205225342,0 ONEWEB-0297,1 49086U 21075M   22154.07546712 -.00001991  00000-0 -55712-2 0  9992,2 49086  87.8834 283.8698 0001895  84.5507 275.5838 13.12453609 42685,,,,,,,1221.819,,7.245961079
2,GENERATED VIA SPACE-TRACK.ORG API,2022-06-03T02:31:39,18 SPCS,ONEWEB-0298,2021-075N,EARTH,TEME,UTC,SGP4,2022-06-02T16:12:34.876224,13.17648829,0.0002303,87.9068,299.1258,94.3471,265.7924,0,U,49087,999,3931,0.00012357,6.10E-07,0,7571.851,109.286,1195.46,1191.972,PAYLOAD,MEDIUM,UK,8/21/2021,TTMTR,,3477983,205213716,0 ONEWEB-0298,1 49087U 21075N   22153.67540366  .00000061  00000-0  12357-3 0  9991,2 49087  87.9068 299.1258 0002303  94.3471 265.7924 13.17648829 39310,,,,,,,1201.851,,7.25550908
2,GENERATED VIA SPACE-TRACK.ORG API,2022-06-03T07:06:16,18 SPCS,ONEWEB-0299,2021-075P,EARTH,TEME,UTC,SGP4,2022-06-03T03:10:53.503680,13.1764863,0.0002109,87.9059,298.9872,98.7995,261.3375,0,U,49088,999,4032,7.34E-05,4.10E-07,0,7571.852,109.286,1195.314,1192.12,PAYLOAD,MEDIUM,UK,8/21/2021,TTMTR,,3478429,205225363,0 ONEWEB-0299,1 49088U 21075P   22154.13256370  .00000041  00000-0  73427-4 0  9997,2 49088  87.9059 298.9872 0002109  98.7995 261.3375 13.17648630 40328,,,,,,,1201.852,,7.255508601
2,GENERATED VIA SPACE-TRACK.ORG API,2022-06-03T07:06:16,18 SPCS,ONEWEB-0300,2021-075Q,EARTH,TEME,UTC,SGP4,2022-06-03T01:36:29.141280,13.12425921,0.0001389,87.8721,283.837,98.4066,261.722,0,U,49089,999,4270,0.011108,4.01E-05,0,7591.926,109.72,1214.846,1212.737,PAYLOAD,MEDIUM,UK,8/21/2021,TTMTR,,3478433,205225412,0 ONEWEB-0300,1 49089U 21075Q   22154.06700395  .00004010  00000-0  11108-1 0  9996,2 49089  87.8721 283.8370 0001389  98.4066 261.7220 13.12425921 42703,,,,,,,1221.926,,7.245910016
2,GENERATED VIA SPACE-TRACK.ORG API,2022-06-03T07:16:12,18 SPCS,ONEWEB-0301,2021-075R,EARTH,TEME,UTC,SGP4,2022-06-03T01:15:09.520128,13.12438777,0.0001719,87.9125,283.8119,91.2797,268.8529,0,U,49090,999,4206,0.0038307,1.39E-05,0,7591.877,109.719,1215.047,1212.437,PAYLOAD,LARGE,UK,8/21/2021,TTMTR,,3478471,205225886,0 ONEWEB-0301,1 49090U 21075R   22154.05219352  .00001391  00000-0  38307-2 0  9995,2 49090  87.9125 283.8119 0001719  91.2797 268.8529 13.12438777 42066,,,,,,,1221.877,,7.2459334
2,GENERATED VIA SPACE-TRACK.ORG API,2022-06-03T07:16:12,18 SPCS,ONEWEB-0302,2021-075S,EARTH,TEME,UTC,SGP4,2022-06-03T02:48:08.882208,13.12445038,0.0002005,87.8885,283.7979,105.8419,254.2931,0,U,49091,999,4206,0.0013344,4.93E-06,0,7591.852,109.719,1215.24,1212.195,PAYLOAD,LARGE,UK,8/21/2021,TTMTR,,3478457,205225900,0 ONEWEB-0302,1 49091U 21075S   22154.11676947  .00000493  00000-0  13344-2 0  9996,2 49091  87.8885 283.7979 0002005 105.8419 254.2931 13.12445038 42068,,,,,,,1221.852,,7.24594533
2,GENERATED VIA SPACE-TRACK.ORG API,2022-06-02T02:51:19,18 SPCS,ONEWEB-0304,2021-075T,EARTH,TEME,UTC,SGP4,2022-06-01T20:00:01.000224,13.17632078,0.0001871,87.9061,299.3123,98.532,295.705,0,U,49092,999,130,0.094353,0.00036786,0,7571.915,109.287,1195.197,1192.363,PAYLOAD,LARGE,UK,8/21/2021,TTMTR,,3476255,205125727,0 ONEWEB-0304,1 49092U 21075T   22152.83334491  .00036786  00000-0  94353-1 0  9991,2 49092  87.9061 299.3123 0001871  98.5320 295.7050 13.17632078  1300,,,,,,,1201.915,,7.255478417
2,GENERATED VIA SPACE-TRACK.ORG API,2022-06-02T23:26:12,18 SPCS,ONEWEB-0305,2021-075U,EARTH,TEME,UTC,SGP4,2022-06-02T19:20:02.353920,13.1764846,0.0002312,87.9057,299.1619,101.7041,258.435,0,U,49093,999,4028,-2.05E-06,1.20E-07,0,7571.852,109.286,1195.468,1191.967,PAYLOAD,LARGE,UK,8/21/2021,TTMTR,,3477905,205188387,0 ONEWEB-0305,1 49093U 21075U   22153.80558280  .00000012  00000-0 -20537-5 0  9995,2 49093  87.9057 299.1619 0002312 101.7041 258.4350 13.17648460 40283,,,,,,,1201.852,,7.255508601
2,GENERATED VIA SPACE-TRACK.ORG API,2022-06-03T07:16:12,18 SPCS,ONEWEB-0308,2021-075V,EARTH,TEME,UTC,SGP4,2022-06-03T02:40:32.591712,13.12440853,0.0001801,87.8875,283.8012,96.0863,264.0471,0,U,49094,999,4207,0.0008267,3.10E-06,0,7591.869,109.719,1215.101,1212.366,PAYLOAD,MEDIUM,UK,8/21/2021,TTMTR,,3478485,205226755,0 ONEWEB-0308,1 49094U 21075V   22154.11148833  .00000310  00000-0  82670-3 0  9994,2 49094  87.8875 283.8012 0001801  96.0863 264.0471 13.12440853 42075,,,,,,,1221.869,,7.245937218
2,GENERATED VIA SPACE-TRACK.ORG API,2022-06-02T23:26:12,18 SPCS,ONEWEB-0309,2021-075W,EARTH,TEME,UTC,SGP4,2022-06-02T19:26:44.174400,13.17647889,0.0001538,87.907,299.1595,118.9364,241.1922,0,U,49095,999,4027,-0.00012606,-3.60E-07,0,7571.855,109.286,1194.884,1192.555,PAYLOAD,LARGE,UK,8/21/2021,TTMTR,,3477891,205188160,0 ONEWEB-0309,1 49095U 21075W   22153.81023350 -.00000036  00000-0 -12606-3 0  9996,2 49095  87.9070 299.1595 0001538 118.9364 241.1922 13.17647889 40277,,,,,,,1201.855,,7.255507163
2,GENERATED VIA SPACE-TRACK.ORG API,2022-06-03T07:16:12,18 SPCS,ONEWEB-0310,2021-075X,EARTH,TEME,UTC,SGP4,2022-06-03T02:58:48.260352,13.1241336,0.0001788,87.8841,283.8799,117.3005,242.8306,0,U,49096,999,4270,0.0010727,3.98E-06,0,7591.975,109.722,1215.197,1212.482,PAYLOAD,MEDIUM,UK,8/21/2021,TTMTR,,3478486,205227171,0 ONEWEB-0310,1 49096U 21075X   22154.12416968  .00000398  00000-0  10727-2 0  9993,2 49096  87.8841 283.8799 0001788 117.3005 242.8306 13.12413360 42705,,,,,,,1221.975,,7.245886633
2,GENERATED VIA SPACE-TRACK.ORG API,2022-06-03T02:31:39,18 SPCS,ONEWEB-0311,2021-075Y,EARTH,TEME,UTC,SGP4,2022-06-02T19:33:25.649280,13.17649923,0.0002337,87.9064,299.1614,97.4537,262.686,0,U,49097,999,3933,-0.00014298,-4.30E-07,0,7571.847,109.285,1195.481,1191.942,PAYLOAD,MEDIUM,UK,8/21/2021,TTMTR,,3477983,205213217,0 ONEWEB-0311,1 49097U 21075Y   22153.81488020 -.00000043  00000-0 -14298-3 0  9994,2 49097  87.9064 299.1614 0002337  97.4537 262.6860 13.17649923 39330,,,,,,,1201.847,,7.255510996
2,GENERATED VIA SPACE-TRACK.ORG API,2022-06-03T02:31:39,18 SPCS,ONEWEB-0312,2021-075Z,EARTH,TEME,UTC,SGP4,2022-06-02T19:44:33.992160,13.17651512,0.0002038,87.9079,299.1098,110.927,249.2079,0,U,49098,999,3931,-9.21E-05,-2.30E-07,0,7571.841,109.285,1195.249,1192.162,PAYLOAD,MEDIUM,UK,8/21/2021,TTMTR,,3477983,205213969,0 ONEWEB-0312,1 49098U 21075Z   22153.82261565 -.00000023  00000-0 -92052-4 0  9992,2 49098  87.9079 299.1098 0002038 110.9270 249.2079 13.17651512 39314,,,,,,,1201.841,,7.255513871
2,GENERATED VIA SPACE-TRACK.ORG API,2022-06-03T07:16:12,18 SPCS,ONEWEB-0313,2021-075AA,EARTH,TEME,UTC,SGP4,2022-06-03T02:41:53.164896,13.17649637,0.0002123,87.9059,299.1026,111.6225,248.5133,0,U,49099,999,4034,-0.00019319,-6.20E-07,0,7571.848,109.286,1195.32,1192.105,PAYLOAD,MEDIUM,UK,8/21/2021,TTMTR,,3478496,205226930,0 ONEWEB-0313,1 49099U 21075AA  22154.11242089 -.00000062  00000-0 -19319-3 0  9993,2 49099  87.9059 299.1026 0002123 111.6225 248.5133 13.17649637 40340,,,,,,,1201.848,,7.255510517
